start=new Date('2022-12-14T00:00:00.000Z').valueOf();
sats=[{"LAUNCH_DATE":"2020-06-04","ELEMENT_SET_NO":"999","OBJECT_TYPE":"PAYLOAD","MEAN_ANOMALY":"288.9606","CLASSIFICATION_TYPE":"U","MEAN_MOTION_DDOT":"0.0000000000000","MEAN_MOTION":"15.06397666","PERIAPSIS":"545.926","TLE_LINE2":"2 45693  53.0549 323.0288 0001870  71.1586 288.9606 15.06397666140301","CENTER_NAME":"EARTH","RCS_SIZE":"LARGE","EPHEMERIS_TYPE":"0","INCLINATION":"53.0549","DECAY_DATE":null,"MEAN_MOTION_DOT":"0.00000860","REF_FRAME":"TEME","APOAPSIS":"548.516","FILE":"3697537","OBJECT_NAME":"STARLINK-1417","SEMIMAJOR_AXIS":"6925.356","ECCENTRICITY":"0.00018700","EPOCH":"2022-12-13T15:32:03.762528","TLE_LINE1":"1 45693U 20035AN  22347.64726577  .00000860  00000-0  76613-4 0  9990","PERIOD":"95.592","RA_OF_ASC_NODE":"323.0288","SITE":"AFETR","NORAD_CAT_ID":"45693","GP_ID":"220286974","OBJECT_ID":"2020-035AN","ARG_OF_PERICENTER":"71.1586","TIME_SYSTEM":"UTC","COUNTRY_CODE":"US","REV_AT_EPOCH":"14030","BSTAR":"0.00007661300000","MEAN_ELEMENT_THEORY":"SGP4"},{"ARG_OF_PERICENTER":"69.4923","TIME_SYSTEM":"UTC","OBJECT_ID":"2020-035AP","REV_AT_EPOCH":"14068","COUNTRY_CODE":"US","SITE":"AFETR","GP_ID":"220273990","NORAD_CAT_ID":"45694","BSTAR":"0.00161080000000","MEAN_ELEMENT_THEORY":"SGP4","ECCENTRICITY":"0.00030820","EPOCH":"2022-12-13T07:44:45.575808","OBJECT_NAME":"STARLINK-1419","SEMIMAJOR_AXIS":"6909.849","TLE_LINE1":"1 45694U 20035AP  22347.32274972  .00027379  00000-0  16108-2 0  9998","PERIOD":"95.271","RA_OF_ASC_NODE":"322.3596","EPHEMERIS_TYPE":"0","CENTER_NAME":"EARTH","RCS_SIZE":"LARGE","INCLINATION":"53.0529","TLE_LINE2":"2 45694  53.0529 322.3596 0003082  69.4923 290.6398 15.11471368140683","APOAPSIS":"533.844","FILE":"3697190","MEAN_MOTION_DOT":"0.00027379","REF_FRAME":"TEME","DECAY_DATE":null,"LAUNCH_DATE":"2020-06-04","MEAN_MOTION":"15.11471368","MEAN_MOTION_DDOT":"0.0000000000000","PERIAPSIS":"529.584","ELEMENT_SET_NO":"999","OBJECT_TYPE":"PAYLOAD","MEAN_ANOMALY":"290.6398","CLASSIFICATION_TYPE":"U"},{"BSTAR":"-0.00000941050000","MEAN_ELEMENT_THEORY":"SGP4","OBJECT_ID":"2020-035AQ","TIME_SYSTEM":"UTC","ARG_OF_PERICENTER":"58.5715","COUNTRY_CODE":"US","REV_AT_EPOCH":"14057","SITE":"AFETR","GP_ID":"220286972","NORAD_CAT_ID":"45695","TLE_LINE1":"1 45695U 20035AQ  22347.58180358 -.00000422  00000-0 -94105-5 0  9999","PERIOD":"95.592","RA_OF_ASC_NODE":"303.3076","ECCENTRICITY":"0.00017730","EPOCH":"2022-12-13T13:57:47.829312","OBJECT_NAME":"STARLINK-1420","SEMIMAJOR_AXIS":"6925.341","APOAPSIS":"548.434","FILE":"3697537","DECAY_DATE":null,"MEAN_MOTION_DOT":"-0.00000422","REF_FRAME":"TEME","RCS_SIZE":"LARGE","CENTER_NAME":"EARTH","EPHEMERIS_TYPE":"0","INCLINATION":"53.0574","TLE_LINE2":"2 45695  53.0574 303.3076 0001773  58.5715 301.5447 15.06402584140572","MEAN_MOTION_DDOT":"0.0000000000000","MEAN_MOTION":"15.06402584","PERIAPSIS":"545.978","OBJECT_TYPE":"PAYLOAD","ELEMENT_SET_NO":"999","MEAN_ANOMALY":"301.5447","CLASSIFICATION_TYPE":"U","LAUNCH_DATE":"2020-06-04"},{"PERIOD":"95.592","RA_OF_ASC_NODE":"324.4504","TLE_LINE1":"1 45696U 20035AR  22347.32657797  .00000418  00000-0  46939-4 0  9992","SEMIMAJOR_AXIS":"6925.338","OBJECT_NAME":"STARLINK-1422","EPOCH":"2022-12-13T07:50:16.336608","ECCENTRICITY":"0.00017860","MEAN_ELEMENT_THEORY":"SGP4","BSTAR":"0.00004693900000","NORAD_CAT_ID":"45696","GP_ID":"220274990","SITE":"AFETR","REV_AT_EPOCH":"14065","COUNTRY_CODE":"US","TIME_SYSTEM":"UTC","ARG_OF_PERICENTER":"58.0137","OBJECT_ID":"2020-035AR","CLASSIFICATION_TYPE":"U","MEAN_ANOMALY":"302.1026","OBJECT_TYPE":"PAYLOAD","ELEMENT_SET_NO":"999","PERIAPSIS":"545.967","MEAN_MOTION":"15.06403302","MEAN_MOTION_DDOT":"0.0000000000000","LAUNCH_DATE":"2020-06-04","MEAN_MOTION_DOT":"0.00000418","REF_FRAME":"TEME","DECAY_DATE":null,"FILE":"3697190","APOAPSIS":"548.440","TLE_LINE2":"2 45696  53.0562 324.4504 0001786  58.0137 302.1026 15.06403302140655","INCLINATION":"53.0562","EPHEMERIS_TYPE":"0","RCS_SIZE":"LARGE","CENTER_NAME":"EARTH"},{"MEAN_MOTION":"15.06405165","MEAN_MOTION_DDOT":"0.0000000000000","PERIAPSIS":"546.100","OBJECT_TYPE":"PAYLOAD","ELEMENT_SET_NO":"999","MEAN_ANOMALY":"293.6225","CLASSIFICATION_TYPE":"U","LAUNCH_DATE":"2020-06-04","APOAPSIS":"548.295","FILE":"3697190","DECAY_DATE":null,"MEAN_MOTION_DOT":"0.00000705","REF_FRAME":"TEME","CENTER_NAME":"EARTH","RCS_SIZE":"LARGE","EPHEMERIS_TYPE":"0","INCLINATION":"53.0546","TLE_LINE2":"2 45697  53.0546 304.5710 0001585  66.4930 293.6225 15.06405165140943","TLE_LINE1":"1 45697U 20035AS  22347.30261961  .00000705  00000-0  66194-4 0  9999","RA_OF_ASC_NODE":"304.5710","PERIOD":"95.592","ECCENTRICITY":"0.00015850","EPOCH":"2022-12-13T07:15:46.334304","OBJECT_NAME":"STARLINK-1351","SEMIMAJOR_AXIS":"6925.333","BSTAR":"0.00006619400000","MEAN_ELEMENT_THEORY":"SGP4","OBJECT_ID":"2020-035AS","TIME_SYSTEM":"UTC","ARG_OF_PERICENTER":"66.4930","COUNTRY_CODE":"US","REV_AT_EPOCH":"14094","SITE":"AFETR","GP_ID":"220275228","NORAD_CAT_ID":"45697"},{"TIME_SYSTEM":"UTC","ARG_OF_PERICENTER":"57.3140","OBJECT_ID":"2020-035AT","REV_AT_EPOCH":"14059","COUNTRY_CODE":"US","SITE":"AFETR","NORAD_CAT_ID":"45698","GP_ID":"220287390","BSTAR":"0.00000132710000","MEAN_ELEMENT_THEORY":"SGP4","ECCENTRICITY":"0.00016610","EPOCH":"2022-12-13T14:56:10.447296","OBJECT_NAME":"STARLINK-1370","SEMIMAJOR_AXIS":"6925.338","TLE_LINE1":"1 45698U 20035AT  22347.62234314 -.00000262  00000-0  13271-5 0  9995","RA_OF_ASC_NODE":"303.1263","PERIOD":"95.592","EPHEMERIS_TYPE":"0","RCS_SIZE":"LARGE","CENTER_NAME":"EARTH","INCLINATION":"53.0557","TLE_LINE2":"2 45698  53.0557 303.1263 0001661  57.3140 302.8009 15.06403294140596","APOAPSIS":"548.354","FILE":"3697514","MEAN_MOTION_DOT":"-0.00000262","REF_FRAME":"TEME","DECAY_DATE":null,"LAUNCH_DATE":"2020-06-04","MEAN_MOTION":"15.06403294","MEAN_MOTION_DDOT":"0.0000000000000","PERIAPSIS":"546.053","ELEMENT_SET_NO":"999","OBJECT_TYPE":"PAYLOAD","MEAN_ANOMALY":"302.8009","CLASSIFICATION_TYPE":"U"},{"TLE_LINE1":"1 45699U 20035AU  22347.28049815  .00000643  00000-0  62026-4 0  9991","RA_OF_ASC_NODE":"304.6707","PERIOD":"95.592","ECCENTRICITY":"0.00014210","EPOCH":"2022-12-13T06:43:55.040160","OBJECT_NAME":"STARLINK-1398","SEMIMAJOR_AXIS":"6925.351","BSTAR":"0.00006202600000","MEAN_ELEMENT_THEORY":"SGP4","OBJECT_ID":"2020-035AU","TIME_SYSTEM":"UTC","ARG_OF_PERICENTER":"86.3158","COUNTRY_CODE":"US","REV_AT_EPOCH":"14093","SITE":"AFETR","NORAD_CAT_ID":"45699","GP_ID":"220274738","MEAN_MOTION_DDOT":"0.0000000000000","MEAN_MOTION":"15.06399247","PERIAPSIS":"546.232","OBJECT_TYPE":"PAYLOAD","ELEMENT_SET_NO":"999","CLASSIFICATION_TYPE":"U","MEAN_ANOMALY":"273.7993","LAUNCH_DATE":"2020-06-04","APOAPSIS":"548.200","FILE":"3697190","DECAY_DATE":null,"MEAN_MOTION_DOT":"0.00000643","REF_FRAME":"TEME","CENTER_NAME":"EARTH","RCS_SIZE":"LARGE","EPHEMERIS_TYPE":"0","INCLINATION":"53.0553","TLE_LINE2":"2 45699  53.0553 304.6707 0001421  86.3158 273.7993 15.06399247140935"},{"FILE":"3697190","APOAPSIS":"548.086","MEAN_MOTION_DOT":"0.00004270","REF_FRAME":"TEME","DECAY_DATE":null,"INCLINATION":"53.0570","EPHEMERIS_TYPE":"0","RCS_SIZE":"LARGE","CENTER_NAME":"EARTH","TLE_LINE2":"2 45700  53.0570 304.6817 0001271  67.6200 292.4923 15.06402675140933","PERIAPSIS":"546.325","MEAN_MOTION":"15.06402675","MEAN_MOTION_DDOT":"0.0000000000000","MEAN_ANOMALY":"292.4923","CLASSIFICATION_TYPE":"U","OBJECT_TYPE":"PAYLOAD","ELEMENT_SET_NO":"999","LAUNCH_DATE":"2020-06-04","MEAN_ELEMENT_THEORY":"SGP4","BSTAR":"0.00030538000000","REV_AT_EPOCH":"14093","COUNTRY_CODE":"US","TIME_SYSTEM":"UTC","ARG_OF_PERICENTER":"67.6200","OBJECT_ID":"2020-035AV","GP_ID":"220275490","NORAD_CAT_ID":"45700","SITE":"AFETR","PERIOD":"95.592","RA_OF_ASC_NODE":"304.6817","TLE_LINE1":"1 45700U 20035AV  22347.27682628  .00004270  00000-0  30538-3 0  9990","EPOCH":"2022-12-13T06:38:37.790592","ECCENTRICITY":"0.00012710","SEMIMAJOR_AXIS":"6925.340","OBJECT_NAME":"STARLINK-1400"},{"GP_ID":"220275728","NORAD_CAT_ID":"45701","SITE":"AFETR","COUNTRY_CODE":"US","REV_AT_EPOCH":"14093","OBJECT_ID":"2020-035AW","ARG_OF_PERICENTER":"51.3508","TIME_SYSTEM":"UTC","MEAN_ELEMENT_THEORY":"SGP4","BSTAR":"-0.00007430700000","SEMIMAJOR_AXIS":"6925.313","OBJECT_NAME":"STARLINK-1403","EPOCH":"2022-12-13T07:21:04.427136","ECCENTRICITY":"0.00017290","PERIOD":"95.591","RA_OF_ASC_NODE":"304.5551","TLE_LINE1":"1 45701U 20035AW  22347.30630124 -.00001389  00000-0 -74307-4 0  9992","TLE_LINE2":"2 45701  53.0553 304.5551 0001729  51.3508 308.7636 15.06411610140939","INCLINATION":"53.0553","RCS_SIZE":"LARGE","CENTER_NAME":"EARTH","EPHEMERIS_TYPE":"0","DECAY_DATE":null,"MEAN_MOTION_DOT":"-0.00001389","REF_FRAME":"TEME","FILE":"3697190","APOAPSIS":"548.375","LAUNCH_DATE":"2020-06-04","CLASSIFICATION_TYPE":"U","MEAN_ANOMALY":"308.7636","OBJECT_TYPE":"PAYLOAD","ELEMENT_SET_NO":"999","PERIAPSIS":"545.981","MEAN_MOTION":"15.06411610","MEAN_MOTION_DDOT":"0.0000000000000"},{"RA_OF_ASC_NODE":"305.2277","PERIOD":"95.592","TLE_LINE1":"1 45702U 20035AX  22347.15518214  .00000012  00000-0  19692-4 0  9997","SEMIMAJOR_AXIS":"6925.338","OBJECT_NAME":"STARLINK-1405","EPOCH":"2022-12-13T03:43:27.736896","ECCENTRICITY":"0.00016450","MEAN_ELEMENT_THEORY":"SGP4","BSTAR":"0.00001969200000","NORAD_CAT_ID":"45702","GP_ID":"220224146","SITE":"AFETR","COUNTRY_CODE":"US","REV_AT_EPOCH":"14090","OBJECT_ID":"2020-035AX","ARG_OF_PERICENTER":"76.2149","TIME_SYSTEM":"UTC","MEAN_ANOMALY":"283.9023","CLASSIFICATION_TYPE":"U","ELEMENT_SET_NO":"999","OBJECT_TYPE":"PAYLOAD","PERIAPSIS":"546.063","MEAN_MOTION_DDOT":"0.0000000000000","MEAN_MOTION":"15.06403580","LAUNCH_DATE":"2020-06-04","DECAY_DATE":null,"MEAN_MOTION_DOT":"0.00000012","REF_FRAME":"TEME","FILE":"3695866","APOAPSIS":"548.342","TLE_LINE2":"2 45702  53.0563 305.2277 0001645  76.2149 283.9023 15.06403580140906","INCLINATION":"53.0563","CENTER_NAME":"EARTH","RCS_SIZE":"LARGE","EPHEMERIS_TYPE":"0"}];
